{
    "links": {
        "self": "http://www.neowsapp.com/rest/v1/neo/3175335?api_key=iIulBulltgU6a56xZRHN4H3l9WmuAYTsLGpBGhQ2"
    },
    "id": "3175335",
    "neo_reference_id": "3175335",
    "name": "(2004 DL1)",
    "designation": "2004 DL1",
    "nasa_jpl_url": "http://ssd.jpl.nasa.gov/sbdb.cgi?sstr=3175335",
    "absolute_magnitude_h": 24.4,
    "estimated_diameter": {
        "kilometers": {
            "estimated_diameter_min": 0.0350392641,
            "estimated_diameter_max": 0.0783501764
        },
        "meters": {
            "estimated_diameter_min": 35.0392641108,
            "estimated_diameter_max": 78.3501764334
        },
        "miles": {
            "estimated_diameter_min": 0.0217723826,
            "estimated_diameter_max": 0.0486845275
        },
        "feet": {
            "estimated_diameter_min": 114.9582192654,
            "estimated_diameter_max": 257.0543928497
        }
    },
    "is_potentially_hazardous_asteroid": false,
    "close_approach_data": [
        {
            "close_approach_date": "2004-02-09",
            "close_approach_date_full": "2004-Feb-09 08:13",
            "epoch_date_close_approach": 1076314380000,
            "relative_velocity": {
                "kilometers_per_second": "20.3646630699",
                "kilometers_per_hour": "73312.7870516519",
                "miles_per_hour": "45553.7148210667"
            },
            "miss_distance": {
                "astronomical": "0.0316580768",
                "lunar": "12.3149918752",
                "kilometers": "4735980.857576416",
                "miles": "2942802.0453539008"
            },
            "orbiting_body": "Earth"
        }
    ],
    "orbital_data": {
        "orbit_id": "7",
        "orbit_determination_date": "2017-04-06 09:13:09",
        "first_observation_date": "2004-02-18",
        "last_observation_date": "2004-02-22",
        "data_arc_in_days": 4,
        "observations_used": 14,
        "orbit_uncertainty": "9",
        "minimum_orbit_intersection": ".0223571",
        "jupiter_tisserand_invariant": "3.735",
        "epoch_osculation": "2453054.5",
        "eccentricity": ".6936727270774238",
        "semi_major_axis": "1.801754774260506",
        "inclination": "2.266687488527429",
        "ascending_node_longitude": "176.0030516528984",
        "orbital_period": "883.3685822545624",
        "perihelion_distance": ".5519266264744528",
        "perihelion_argument": "230.6692806705105",
        "aphelion_distance": "3.05158292204656",
        "perihelion_time": "2452997.692493454376",
        "mean_anomaly": "23.15081469643134",
        "mean_motion": ".4075309075190292",
        "equinox": "J2000",
        "orbit_class": {
            "orbit_class_type": "APO",
            "orbit_class_description": "Near-Earth asteroid orbits which cross the Earth’s orbit similar to that of 1862 Apollo",
            "orbit_class_range": "a (semi-major axis) > 1.0 AU; q (perihelion) < 1.017 AU"
        }
    },
    "is_sentry_object": false
}